start=new Date('%Y-%m-57T00:00:00.000Z').valueOf();
sats=[{"MEAN_ELEMENT_THEORY":"SGP4","BSTAR":"-0.00001843500000","OBJECT_NAME":"STARLINK-1369","ARG_OF_PERICENTER":"100.3908","LAUNCH_DATE":"2020-04-22","DECAY_DATE":null,"REV_AT_EPOCH":"7471","INCLINATION":"53.0549","NORAD_CAT_ID":"45541","ELEMENT_SET_NO":"999","RCS_SIZE":"LARGE","MEAN_MOTION_DOT":"-0.00000556","RA_OF_ASC_NODE":"3.7861","PERIOD":"95.593","REF_FRAME":"TEME","SEMIMAJOR_AXIS":"6925.376","CLASSIFICATION_TYPE":"U","MEAN_MOTION":"15.06391131","TIME_SYSTEM":"UTC","ECCENTRICITY":"0.00013920","CENTER_NAME":"EARTH","GP_ID":"183183560","MEAN_MOTION_DDOT":"0.0000000000000","OBJECT_TYPE":"PAYLOAD","SITE":"AFETR","TLE_LINE1":"1 45541U 20025L   21233.54794869 -.00000556  00000-0 -18435-4 0  9994","EPOCH":"2021-08-21T13:09:02.766816","COUNTRY_CODE":"US","PERIAPSIS":"546.277","OBJECT_ID":"2020-025L","FILE":"3100831","APOAPSIS":"548.205","TLE_LINE2":"2 45541  53.0549   3.7861 0001392 100.3908 259.7238 15.06391131 74713","EPHEMERIS_TYPE":"0","MEAN_ANOMALY":"259.7238"},{"ARG_OF_PERICENTER":"95.9262","BSTAR":"0.00011617000000","OBJECT_NAME":"STARLINK-1371","MEAN_ELEMENT_THEORY":"SGP4","DECAY_DATE":null,"LAUNCH_DATE":"2020-04-22","REV_AT_EPOCH":"7471","RCS_SIZE":"LARGE","MEAN_MOTION_DOT":"0.00001450","ELEMENT_SET_NO":"999","NORAD_CAT_ID":"45542","INCLINATION":"53.0560","SEMIMAJOR_AXIS":"6925.336","REF_FRAME":"TEME","RA_OF_ASC_NODE":"3.9280","PERIOD":"95.592","GP_ID":"183184310","CENTER_NAME":"EARTH","ECCENTRICITY":"0.00012800","TIME_SYSTEM":"UTC","MEAN_MOTION":"15.06404017","CLASSIFICATION_TYPE":"U","COUNTRY_CODE":"US","TLE_LINE1":"1 45542U 20025M   21233.51476538  .00001450  00000-0  11617-3 0  9998","EPOCH":"2021-08-21T12:21:15.728832","OBJECT_TYPE":"PAYLOAD","SITE":"AFETR","MEAN_MOTION_DDOT":"0.0000000000000","MEAN_ANOMALY":"264.1873","EPHEMERIS_TYPE":"0","TLE_LINE2":"2 45542  53.0560   3.9280 0001280  95.9262 264.1873 15.06404017 74715","APOAPSIS":"548.088","FILE":"3100831","OBJECT_ID":"2020-025M","PERIAPSIS":"546.315"},{"GP_ID":"183184562","CLASSIFICATION_TYPE":"U","TIME_SYSTEM":"UTC","MEAN_MOTION":"15.06411076","ECCENTRICITY":"0.00013410","CENTER_NAME":"EARTH","REF_FRAME":"TEME","SEMIMAJOR_AXIS":"6925.315","PERIOD":"95.591","RA_OF_ASC_NODE":"3.7681","TLE_LINE2":"2 45543  53.0566   3.7681 0001341 104.6393 255.4745 15.06411076 73810","EPHEMERIS_TYPE":"0","MEAN_ANOMALY":"255.4745","PERIAPSIS":"546.251","OBJECT_ID":"2020-025N","FILE":"3100831","APOAPSIS":"548.108","TLE_LINE1":"1 45543U 20025N   21233.55162969  .00001987  00000-0  15223-3 0  9995","EPOCH":"2021-08-21T13:14:20.805216","COUNTRY_CODE":"US","MEAN_MOTION_DDOT":"0.0000000000000","SITE":"AFETR","OBJECT_TYPE":"PAYLOAD","DECAY_DATE":null,"LAUNCH_DATE":"2020-04-22","ARG_OF_PERICENTER":"104.6393","MEAN_ELEMENT_THEORY":"SGP4","OBJECT_NAME":"STARLINK-1372","BSTAR":"0.00015223000000","RCS_SIZE":"LARGE","MEAN_MOTION_DOT":"0.00001987","INCLINATION":"53.0566","NORAD_CAT_ID":"45543","ELEMENT_SET_NO":"999","REV_AT_EPOCH":"7381"},{"EPHEMERIS_TYPE":"0","TLE_LINE2":"2 45544  53.0557   3.9852 0001318  95.9187 264.1952 15.06395169 74711","MEAN_ANOMALY":"264.1952","PERIAPSIS":"546.316","APOAPSIS":"548.141","FILE":"3100831","OBJECT_ID":"2020-025P","EPOCH":"2021-08-21T12:05:20.858496","TLE_LINE1":"1 45544U 20025P   21233.50371364 -.00000529  00000-0 -16620-4 0  9998","COUNTRY_CODE":"US","MEAN_MOTION_DDOT":"0.0000000000000","SITE":"AFETR","OBJECT_TYPE":"PAYLOAD","GP_ID":"183185312","CLASSIFICATION_TYPE":"U","ECCENTRICITY":"0.00013180","CENTER_NAME":"EARTH","MEAN_MOTION":"15.06395169","TIME_SYSTEM":"UTC","SEMIMAJOR_AXIS":"6925.363","REF_FRAME":"TEME","PERIOD":"95.592","RA_OF_ASC_NODE":"3.9852","MEAN_MOTION_DOT":"-0.00000529","RCS_SIZE":"LARGE","NORAD_CAT_ID":"45544","INCLINATION":"53.0557","ELEMENT_SET_NO":"999","REV_AT_EPOCH":"7471","DECAY_DATE":null,"LAUNCH_DATE":"2020-04-22","ARG_OF_PERICENTER":"95.9187","MEAN_ELEMENT_THEORY":"SGP4","OBJECT_NAME":"STARLINK-1373","BSTAR":"-0.00001662000000"},{"REV_AT_EPOCH":"7469","INCLINATION":"53.0569","NORAD_CAT_ID":"45545","ELEMENT_SET_NO":"999","MEAN_MOTION_DOT":"-0.00000579","RCS_SIZE":"LARGE","MEAN_ELEMENT_THEORY":"SGP4","BSTAR":"-0.00001997800000","OBJECT_NAME":"STARLINK-1374","ARG_OF_PERICENTER":"115.7616","LAUNCH_DATE":"2020-04-22","DECAY_DATE":null,"MEAN_MOTION_DDOT":"0.0000000000000","OBJECT_TYPE":"PAYLOAD","SITE":"AFETR","EPOCH":"2021-08-21T12:31:53.169024","TLE_LINE1":"1 45545U 20025Q   21233.52214316 -.00000579  00000-0 -19978-4 0  9998","COUNTRY_CODE":"US","PERIAPSIS":"546.423","OBJECT_ID":"2020-025Q","FILE":"3100831","APOAPSIS":"548.038","TLE_LINE2":"2 45545  53.0569   3.8975 0001166 115.7616 244.3493 15.06394338 74693","EPHEMERIS_TYPE":"0","MEAN_ANOMALY":"244.3493","RA_OF_ASC_NODE":"3.8975","PERIOD":"95.592","REF_FRAME":"TEME","SEMIMAJOR_AXIS":"6925.366","CLASSIFICATION_TYPE":"U","TIME_SYSTEM":"UTC","MEAN_MOTION":"15.06394338","CENTER_NAME":"EARTH","ECCENTRICITY":"0.00011660","GP_ID":"183184060"},{"GP_ID":"183183811","CLASSIFICATION_TYPE":"U","CENTER_NAME":"EARTH","ECCENTRICITY":"0.00012960","TIME_SYSTEM":"UTC","MEAN_MOTION":"15.06398108","SEMIMAJOR_AXIS":"6925.354","REF_FRAME":"TEME","PERIOD":"95.592","RA_OF_ASC_NODE":"3.8518","EPHEMERIS_TYPE":"0","TLE_LINE2":"2 45546  53.0569   3.8518 0001296 112.6759 247.4367 15.06398108 74711","MEAN_ANOMALY":"247.4367","PERIAPSIS":"546.322","FILE":"3100831","APOAPSIS":"548.117","OBJECT_ID":"2020-025R","EPOCH":"2021-08-21T12:47:48.499008","TLE_LINE1":"1 45546U 20025R   21233.53320022  .00001098  00000-0  92567-4 0  9992","COUNTRY_CODE":"US","MEAN_MOTION_DDOT":"0.0000000000000","OBJECT_TYPE":"PAYLOAD","SITE":"AFETR","DECAY_DATE":null,"LAUNCH_DATE":"2020-04-22","ARG_OF_PERICENTER":"112.6759","MEAN_ELEMENT_THEORY":"SGP4","OBJECT_NAME":"STARLINK-1375","BSTAR":"0.00009256700000","MEAN_MOTION_DOT":"0.00001098","RCS_SIZE":"LARGE","NORAD_CAT_ID":"45546","INCLINATION":"53.0569","ELEMENT_SET_NO":"999","REV_AT_EPOCH":"7471"},{"PERIAPSIS":"546.238","APOAPSIS":"548.198","FILE":"3100831","OBJECT_ID":"2020-025S","EPHEMERIS_TYPE":"0","TLE_LINE2":"2 45547  53.0570   3.8671 0001415 106.4716 253.6429 15.06398497 74721","MEAN_ANOMALY":"253.6429","MEAN_MOTION_DDOT":"0.0000000000000","OBJECT_TYPE":"PAYLOAD","SITE":"AFETR","EPOCH":"2021-08-21T12:42:30.434688","TLE_LINE1":"1 45547U 20025S   21233.52951892 -.00000562  00000-0 -18850-4 0  9997","COUNTRY_CODE":"US","CLASSIFICATION_TYPE":"U","CENTER_NAME":"EARTH","ECCENTRICITY":"0.00014150","MEAN_MOTION":"15.06398497","TIME_SYSTEM":"UTC","GP_ID":"183185062","PERIOD":"95.592","RA_OF_ASC_NODE":"3.8671","SEMIMAJOR_AXIS":"6925.353","REF_FRAME":"TEME","NORAD_CAT_ID":"45547","INCLINATION":"53.0570","ELEMENT_SET_NO":"999","RCS_SIZE":"LARGE","MEAN_MOTION_DOT":"-0.00000562","REV_AT_EPOCH":"7472","LAUNCH_DATE":"2020-04-22","DECAY_DATE":null,"MEAN_ELEMENT_THEORY":"SGP4","OBJECT_NAME":"STARLINK-1377","BSTAR":"-0.00001885000000","ARG_OF_PERICENTER":"106.4716"},{"LAUNCH_DATE":"2020-04-22","DECAY_DATE":null,"BSTAR":"-0.00002130800000","OBJECT_NAME":"STARLINK-1378","MEAN_ELEMENT_THEORY":"SGP4","ARG_OF_PERICENTER":"117.6769","ELEMENT_SET_NO":"999","NORAD_CAT_ID":"45548","INCLINATION":"53.0559","RCS_SIZE":"LARGE","MEAN_MOTION_DOT":"-0.00000599","REV_AT_EPOCH":"7471","CENTER_NAME":"EARTH","ECCENTRICITY":"0.00012780","MEAN_MOTION":"15.06393516","TIME_SYSTEM":"UTC","CLASSIFICATION_TYPE":"U","GP_ID":"183184813","RA_OF_ASC_NODE":"3.7482","PERIOD":"95.593","SEMIMAJOR_AXIS":"6925.368","REF_FRAME":"TEME","APOAPSIS":"548.118","FILE":"3100831","OBJECT_ID":"2020-025T","PERIAPSIS":"546.348","MEAN_ANOMALY":"242.4350","EPHEMERIS_TYPE":"0","TLE_LINE2":"2 45548  53.0559   3.7482 0001278 117.6769 242.4350 15.06393516 74712","OBJECT_TYPE":"PAYLOAD","SITE":"AFETR","MEAN_MOTION_DDOT":"0.0000000000000","COUNTRY_CODE":"US","EPOCH":"2021-08-21T13:19:39.229824","TLE_LINE1":"1 45548U 20025T   21233.55531516 -.00000599  00000-0 -21308-4 0  9990"},{"COUNTRY_CODE":"US","TLE_LINE1":"1 45549U 20025U   21233.49265862 -.00000833  00000-0 -37011-4 0  9991","EPOCH":"2021-08-21T11:49:25.704768","OBJECT_TYPE":"PAYLOAD","SITE":"AFETR","MEAN_MOTION_DDOT":"0.0000000000000","MEAN_ANOMALY":"251.5273","TLE_LINE2":"2 45549  53.0548   4.0341 0001350 108.5862 251.5273 15.06394863 74703","EPHEMERIS_TYPE":"0","OBJECT_ID":"2020-025U","FILE":"3100831","APOAPSIS":"548.164","PERIAPSIS":"546.294","REF_FRAME":"TEME","SEMIMAJOR_AXIS":"6925.364","RA_OF_ASC_NODE":"4.0341","PERIOD":"95.592","GP_ID":"183183561","MEAN_MOTION":"15.06394863","TIME_SYSTEM":"UTC","CENTER_NAME":"EARTH","ECCENTRICITY":"0.00013500","CLASSIFICATION_TYPE":"U","REV_AT_EPOCH":"7470","MEAN_MOTION_DOT":"-0.00000833","RCS_SIZE":"LARGE","ELEMENT_SET_NO":"999","INCLINATION":"53.0548","NORAD_CAT_ID":"45549","ARG_OF_PERICENTER":"108.5862","BSTAR":"-0.00003701100000","OBJECT_NAME":"STARLINK-1379","MEAN_ELEMENT_THEORY":"SGP4","DECAY_DATE":null,"LAUNCH_DATE":"2020-04-22"},{"CENTER_NAME":"EARTH","ECCENTRICITY":"0.00012370","MEAN_MOTION":"15.06400567","TIME_SYSTEM":"UTC","CLASSIFICATION_TYPE":"U","GP_ID":"183184311","PERIOD":"95.592","RA_OF_ASC_NODE":"4.5650","SEMIMAJOR_AXIS":"6925.347","REF_FRAME":"TEME","APOAPSIS":"548.068","FILE":"3100831","OBJECT_ID":"2020-025V","PERIAPSIS":"546.355","MEAN_ANOMALY":"243.7978","EPHEMERIS_TYPE":"0","TLE_LINE2":"2 45550  53.0561   4.5650 0001237 116.3138 243.7978 15.06400567 74686","OBJECT_TYPE":"PAYLOAD","SITE":"AFETR","MEAN_MOTION_DDOT":"0.0000000000000","COUNTRY_CODE":"US","TLE_LINE1":"1 45550U 20025V   21233.37376184  .00001198  00000-0  99295-4 0  9995","EPOCH":"2021-08-21T08:58:13.022976","LAUNCH_DATE":"2020-04-22","DECAY_DATE":null,"OBJECT_NAME":"STARLINK-1390","BSTAR":"0.00009929500000","MEAN_ELEMENT_THEORY":"SGP4","ARG_OF_PERICENTER":"116.3138","ELEMENT_SET_NO":"999","NORAD_CAT_ID":"45550","INCLINATION":"53.0561","MEAN_MOTION_DOT":"0.00001198","RCS_SIZE":"LARGE","REV_AT_EPOCH":"7468"}];
